{"type": "FeatureCollection", "features": [ {"type": "Feature", "properties": {"norad_id": 58662, "name": "TIANMU-1 21", "group": "weather", "lat": 74.83128885647659, "lon": -48.16869715109663, "alt_km": 467.2241270717359, "timestamp": "2025-12-15T14:57:57.486884+00:00", "meta": {"OBJECT_NAME": "TIANMU-1 21", "OBJECT_ID": "2023-208C", "EPOCH": "2025-12-14T22:50:11.546592", "MEAN_MOTION": 15.31604308, "ECCENTRICITY": 0.00059317, "INCLINATION": 97.4371, "RA_OF_ASC_NODE": 102.352, "ARG_OF_PERICENTER": 250.8207, "MEAN_ANOMALY": 109.2393, "EPHEMERIS_TYPE": 0, "CLASSIFICATION_TYPE": "U", "NORAD_CAT_ID": 58662, "ELEMENT_SET_NO": 999, "REV_AT_EPOCH": 10933, "BSTAR": 0.00026188618, "MEAN_MOTION_DOT": 7.918e-05, "MEAN_MOTION_DDOT": 0}, "tle": {"line1": "1 58662U 23208C   25348.95152253  .00007918  00000+0  26189-3 0  9999", "line2": "2 58662  97.4371 102.3520 0005931 250.8207 109.2393 15.31604308109339"}}, "geometry": {"type": "Point", "coordinates": [-48.16869715109663, 74.83128885647659]}}, {"type": "Feature", "properties": {"norad_id": 58663, "name": "TIANMU-1 22", "group": "weather", "lat": -15.411294872172482, "lon": 102.77605129867119, "alt_km": 487.08863012369875, "timestamp": "2025-12-15T14:57:57.486893+00:00", "meta": {"OBJECT_NAME": "TIANMU-1 22", "OBJECT_ID": "2023-208D", "EPOCH": "2025-12-14T21:44:28.793184", "MEAN_MOTION": 15.27648026, "ECCENTRICITY": 0.00026667, "INCLINATION": 97.4379, "RA_OF_ASC_NODE": 99.9964, "ARG_OF_PERICENTER": 275.7738, "MEAN_ANOMALY": 84.3197, "EPHEMERIS_TYPE": 0, "CLASSIFICATION_TYPE": "U", "NORAD_CAT_ID": 58663, "ELEMENT_SET_NO": 999, "REV_AT_EPOCH": 10916, "BSTAR": 0.00028113688, "MEAN_MOTION_DOT": 7.524e-05, "MEAN_MOTION_DDOT": 0}, "tle": {"line1": "1 58663U 23208D   25348.90588881  .00007524  00000+0  28114-3 0  9998", "line2": "2 58663  97.4379  99.9964 0002666 275.7738  84.3197 15.27648026109164"}}, "geometry": {"type": "Point", "coordinates": [102.77605129867119, -15.411294872172482]}}, {"type": "Feature", "properties": {"norad_id": 58700, "name": "TIANMU-1 15", "group": "weather", "lat": 78.3925124099914, "lon": 131.42890978530355, "alt_km": 488.59872958694905, "timestamp": "2025-12-15T14:57:57.486903+00:00", "meta": {"OBJECT_NAME": "TIANMU-1 15", "OBJECT_ID": "2024-004A", "EPOCH": "2025-12-15T11:27:39.170880", "MEAN_MOTION": 15.24523095, "ECCENTRICITY": 0.0005662, "INCLINATION": 97.4625, "RA_OF_ASC_NODE": 170.9368, "ARG_OF_PERICENTER": 280.1287, "MEAN_ANOMALY": 79.9311, "EPHEMERIS_TYPE": 0, "CLASSIFICATION_TYPE": "U", "NORAD_CAT_ID": 58700, "ELEMENT_SET_NO": 999, "REV_AT_EPOCH": 10776, "BSTAR": 0.0001928, "MEAN_MOTION_DOT": 4.672e-05, "MEAN_MOTION_DDOT": 0}, "tle": {"line1": "1 58700U 24004A   25349.47753670  .00004672  00000+0  19280-3 0  9993", "line2": "2 58700  97.4625 170.9368 0005662 280.1287  79.9311 15.24523095107763"}}, "geometry": {"type": "Point", "coordinates": [131.42890978530355, 78.3925124099914]}}, {"type": "Feature", "properties": {"norad_id": 58701, "name": "TIANMU-1 16", "group": "weather", "lat": 16.938760738970956, "lon": -7.24570655716834, "alt_km": 494.5861163941945, "timestamp": "2025-12-15T14:57:57.486912+00:00", "meta": {"OBJECT_NAME": "TIANMU-1 16", "OBJECT_ID": "2024-004B", "EPOCH": "2025-12-14T22:30:01.631232", "MEAN_MOTION": 15.24465805, "ECCENTRICITY": 0.00043807, "INCLINATION": 97.4566, "RA_OF_ASC_NODE": 169.7855, "ARG_OF_PERICENTER": 286.7841, "MEAN_ANOMALY": 73.2916, "EPHEMERIS_TYPE": 0, "CLASSIFICATION_TYPE": "U", "NORAD_CAT_ID": 58701, "ELEMENT_SET_NO": 999, "REV_AT_EPOCH": 10768, "BSTAR": 0.00022717762, "MEAN_MOTION_DOT": 5.508e-05, "MEAN_MOTION_DDOT": 0}, "tle": {"line1": "1 58701U 24004B   25348.93751888  .00005508  00000+0  22718-3 0  9992", "line2": "2 58701  97.4566 169.7855 0004380 286.7841  73.2916 15.24465805107682"}}, "geometry": {"type": "Point", "coordinates": [-7.24570655716834, 16.938760738970956]}}, {"type": "Feature", "properties": {"norad_id": 58702, "name": "TIANMU-1 17", "group": "weather", "lat": -66.65547750444665, "lon": -26.79488925372606, "alt_km": 497.59878876334824, "timestamp": "2025-12-15T14:57:57.486922+00:00", "meta": {"OBJECT_NAME": "TIANMU-1 17", "OBJECT_ID": "2024-004C", "EPOCH": "2025-12-14T23:42:16.289856", "MEAN_MOTION": 15.24510651, "ECCENTRICITY": 0.0003589, "INCLINATION": 97.4601, "RA_OF_ASC_NODE": 170.2467, "ARG_OF_PERICENTER": 289.5056, "MEAN_ANOMALY": 70.5793, "EPHEMERIS_TYPE": 0, "CLASSIFICATION_TYPE": "U", "NORAD_CAT_ID": 58702, "ELEMENT_SET_NO": 999, "REV_AT_EPOCH": 10768, "BSTAR": 0.00023114253, "MEAN_MOTION_DOT": 5.613e-05, "MEAN_MOTION_DDOT": 0}, "tle": {"line1": "1 58702U 24004C   25348.98768854  .00005613  00000+0  23114-3 0  9997", "line2": "2 58702  97.4601 170.2467 0003589 289.5056  70.5793 15.24510651107681"}}, "geometry": {"type": "Point", "coordinates": [-26.79488925372606, -66.65547750444665]}}, {"type": "Feature", "properties": {"norad_id": 58703, "name": "TIANMU-1 18", "group": "weather", "lat": -20.727742065779598, "lon": 173.91871356866125, "alt_km": 496.3564711278659, "timestamp": "2025-12-15T14:57:57.486933+00:00", "meta": {"OBJECT_NAME": "TIANMU-1 18", "OBJECT_ID": "2024-004D", "EPOCH": "2025-12-14T23:18:16.374240", "MEAN_MOTION": 15.24498886, "ECCENTRICITY": 0.00029486, "INCLINATION": 97.4617, "RA_OF_ASC_NODE": 170.426, "ARG_OF_PERICENTER": 289.6368, "MEAN_ANOMALY": 70.4551, "EPHEMERIS_TYPE": 0, "CLASSIFICATION_TYPE": "U", "NORAD_CAT_ID": 58703, "ELEMENT_SET_NO": 999, "REV_AT_EPOCH": 10768, "BSTAR": 0.00025707345, "MEAN_MOTION_DOT": 6.248e-05, "MEAN_MOTION_DDOT": 0}, "tle": {"line1": "1 58703U 24004D   25348.97102285  .00006248  00000+0  25707-3 0  9992", "line2": "2 58703  97.4617 170.4260 0002948 289.6368  70.4551 15.24498886107683"}}, "geometry": {"type": "Point", "coordinates": [173.91871356866125, -20.727742065779598]}}, {"type": "Feature", "properties": {"norad_id": 58990, "name": "INSAT-3DS", "group": "weather", "lat": -0.0121160186766372, "lon": 31.11118730786, "alt_km": 35788.47918053259, "timestamp": "2025-12-15T14:57:57.486943+00:00", "meta": {"OBJECT_NAME": "INSAT-3DS", "OBJECT_ID": "2024-033A", "EPOCH": "2025-12-14T22:18:38.668608", "MEAN_MOTION": 1.00274009, "ECCENTRICITY": 0.00012633, "INCLINATION": 0.0444, "RA_OF_ASC_NODE": 128.0583, "ARG_OF_PERICENTER": 139.1347, "MEAN_ANOMALY": 233.3992, "EPHEMERIS_TYPE": 0, "CLASSIFICATION_TYPE": "U", "NORAD_CAT_ID": 58990, "ELEMENT_SET_NO": 999, "REV_AT_EPOCH": 4522, "BSTAR": 0, "MEAN_MOTION_DOT": -1.37e-06, "MEAN_MOTION_DDOT": 0}, "tle": {"line1": "1 58990U 24033A   25348.92961422 -.00000137  00000+0  00000+0 0  9990", "line2": "2 58990   0.0444 128.0583 0001263 139.1347 233.3992  1.00274009 45229"}}, "geometry": {"type": "Point", "coordinates": [31.11118730786, -0.0121160186766372]}}, {"type": "Feature", "properties": {"norad_id": 59051, "name": "METEOR-M2 4", "group": "weather", "lat": 3.9779891475886613, "lon": 127.09554424230753, "alt_km": 824.5800824536263, "timestamp": "2025-12-15T14:57:57.486952+00:00", "meta": {"OBJECT_NAME": "METEOR-M2 4", "OBJECT_ID": "2024-039A", "EPOCH": "2025-12-14T22:56:51.214848", "MEAN_MOTION": 14.22401717, "ECCENTRICITY": 0.00069168, "INCLINATION": 98.6768, "RA_OF_ASC_NODE": 305.8302, "ARG_OF_PERICENTER": 352.2009, "MEAN_ANOMALY": 7.906, "EPHEMERIS_TYPE": 0, "CLASSIFICATION_TYPE": "U", "NORAD_CAT_ID": 59051, "ELEMENT_SET_NO": 999, "REV_AT_EPOCH": 9307, "BSTAR": 4.2730684e-05, "MEAN_MOTION_DOT": 5.1e-07, "MEAN_MOTION_DDOT": 0}, "tle": {"line1": "1 59051U 24039A   25348.95614832  .00000051  00000+0  42731-4 0  9994", "line2": "2 59051  98.6768 305.8302 0006916 352.2009   7.9060 14.22401717 93070"}}, "geometry": {"type": "Point", "coordinates": [127.09554424230753, 3.9779891475886613]}}, {"type": "Feature", "properties": {"norad_id": 60133, "name": "GOES 19", "group": "weather", "lat": -0.002392310956056112, "lon": -126.19789294166596, "alt_km": 35785.41721539224, "timestamp": "2025-12-15T14:57:57.486963+00:00", "meta": {"OBJECT_NAME": "GOES 19", "OBJECT_ID": "2024-119A", "EPOCH": "2025-12-14T21:37:14.068992", "MEAN_MOTION": 1.00272439, "ECCENTRICITY": 0.00010688, "INCLINATION": 0.0154, "RA_OF_ASC_NODE": 104.1305, "ARG_OF_PERICENTER": 212.8663, "MEAN_ANOMALY": 15.9337, "EPHEMERIS_TYPE": 0, "CLASSIFICATION_TYPE": "U", "NORAD_CAT_ID": 60133, "ELEMENT_SET_NO": 999, "REV_AT_EPOCH": 511, "BSTAR": 0, "MEAN_MOTION_DOT": -2.29e-06, "MEAN_MOTION_DDOT": 0}, "tle": {"line1": "1 60133U 24119A   25348.90085728 -.00000229  00000+0  00000+0 0  9993", "line2": "2 60133   0.0154 104.1305 0001068 212.8663  15.9337  1.00272439  5115"}}, "geometry": {"type": "Point", "coordinates": [-126.19789294166596, -0.002392310956056112]}}, {"type": "Feature", "properties": {"norad_id": 65815, "name": "FENGYUN 3H", "group": "weather", "lat": 28.42061173186595, "lon": -75.57881131204452, "alt_km": 824.1509966025524, "timestamp": "2025-12-15T14:57:57.486972+00:00", "meta": {"OBJECT_NAME": "FENGYUN 3H", "OBJECT_ID": "2025-219A", "EPOCH": "2025-12-14T21:55:07.636512", "MEAN_MOTION": 14.19905345, "ECCENTRICITY": 6.45e-05, "INCLINATION": 98.6586, "RA_OF_ASC_NODE": 288.4565, "ARG_OF_PERICENTER": 97.4042, "MEAN_ANOMALY": 262.7208, "EPHEMERIS_TYPE": 0, "CLASSIFICATION_TYPE": "U", "NORAD_CAT_ID": 65815, "ELEMENT_SET_NO": 999, "REV_AT_EPOCH": 1123, "BSTAR": 6.7191378e-05, "MEAN_MOTION_DOT": 9.9e-07, "MEAN_MOTION_DDOT": 0}, "tle": {"line1": "1 65815U 25219A   25348.91328283  .00000099  00000+0  67191-4 0  9997", "line2": "2 65815  98.6586 288.4565 0000645  97.4042 262.7208 14.19905345 11233"}}, "geometry": {"type": "Point", "coordinates": [-75.57881131204452, 28.42061173186595]}}]}